name,lat,lon,address,tel,URL,category1,category2
塩浜市民体育館,35.66091272,139.9144801,市川市塩浜4-9-1,047-398-2311,http://www.city.ichikawa.lg.jp/pub01/1211000002.html,ｼｵﾊﾏｼﾐﾝﾀｲｸｶﾝ,1階ﾛﾋﾞ-
地域ｹｱ南行徳第二,35.66239183,139.9132114,市川市塩浜4-2-2-101,047-398-8347,http://www.city.ichikawa.lg.jp/pub01/1211000002.html,ﾁｲｷｹｱﾐﾅﾐｷﾞｮｳﾄｸﾀﾞｲﾆ,入口脇
塩浜保育園,35.66312311,139.9113897,市川市塩浜4-2-10-101,047-397-2628,http://www.city.ichikawa.lg.jp/pub01/1211000002.html,ｼｵﾊﾏﾎｲｸｴﾝ,玄関内
いきいきｾﾝﾀ-塩浜,35.66327533,139.9129693,市川市塩浜4-3 ﾊｲﾀｳﾝ塩浜1-101,047-395-2586,http://www.city.ichikawa.lg.jp/pub01/1211000002.html,ｲｷｲｷｾﾝﾀ-ｼｵﾊﾏ,1階ﾎ-ﾙ
塩浜中学校(塩浜学園),35.66351708,139.9154106,市川市塩浜4-6-1,047-397-4421,http://www.city.ichikawa.lg.jp/pub01/1211000002.html,ｼｵﾊﾏﾁｭｳｶﾞｯｺｳ(ｼｵﾊﾏｶﾞｸｴﾝ),1階職員室前廊下壁面
塩浜小学校(塩浜学園),35.66474381,139.9141195,市川市塩浜4-5-1,047-397-1250,http://www.city.ichikawa.lg.jp/pub01/1211000002.html,ｼｵﾊﾏｼｮｳｶﾞｯｺｳ(ｼｵﾊﾏｶﾞｸｴﾝ),女子ﾄｲﾚ入口横
福栄ｽﾎﾟ-ﾂ広場,35.66708961,139.9107308,市川市福栄4-32-4,047-398-0606,http://www.city.ichikawa.lg.jp/pub01/1211000002.html,ﾌｸｴｲｽﾎﾟ-ﾂﾋﾛﾊﾞ,管理事務所内
いきいきｾﾝﾀ-福栄,35.66939803,139.909286,市川市福栄4-32-2,047-395-6906,http://www.city.ichikawa.lg.jp/pub01/1211000002.html,ｲｷｲｷｾﾝﾀ-ﾌｸｴｲ,1階ﾎ-ﾙ
新井地域ふれあい館,35.66976167,139.8987025,市川市新井3-31-1,047-395-5019,http://www.city.ichikawa.lg.jp/pub01/1211000002.html,ｱﾗｲﾁｲｷﾌﾚｱﾝｶﾝ,1階管理人室前
南行徳中学校,35.67094997,139.9067578,市川市南行徳2-2-2,047-397-5910,http://www.city.ichikawa.lg.jp/pub01/1211000002.html,ﾐﾅﾐｷﾞｮｳﾄｸﾁｭｳｶﾞｯｺｳ,1階廊下前
富美浜小学校,35.67159986,139.9052672,市川市南行徳2-3-1,047-396-2522,http://www.city.ichikawa.lg.jp/pub01/1211000002.html,ﾌﾐﾊﾏｼｮｳｶﾞｯｺｳ,校長室前廊下
南行徳保健ｾﾝﾀ-,35.67169225,139.9013899,市川市南行徳1-21-1,047-359-8785,http://www.city.ichikawa.lg.jp/pub01/1211000002.html,ﾐﾅﾐｷﾞｮｳﾄｸﾎｹﾝｾﾝﾀ-,4階事務室入口横棚
南行徳市民ｾﾝﾀ-,35.6717,139.90147,市川市南行徳1-21-1,047-359-7891,http://www.city.ichikawa.lg.jp/pub01/1211000002.html,ﾐﾅﾐｷﾞｮｳﾄｸｼﾐﾝｾﾝﾀ-,3階南行徳市民談話室事務室
福栄小学校,35.67214861,139.9070793,市川市南行徳2-2-1,047-397-8115,http://www.city.ichikawa.lg.jp/pub01/1211000002.html,ﾌｸｴｲｼｮｳｶﾞｯｺｳ,1階市民図書室前廊下
福栄中学校,35.67391336,139.9101519,市川市福栄3-4-1,047-396-0701,http://www.city.ichikawa.lg.jp/pub01/1211000002.html,ﾌｸｴﾁｭｳｶﾞｯｺｳ,1階職員玄関
南新浜小学校,35.67411667,139.9162389,市川市新浜1-26-1,047-396-9731,http://www.city.ichikawa.lg.jp/pub01/1211000002.html,ﾐﾅﾐﾆｲﾊﾏｼｮｳｶﾞｯｺｳ,1階保健室前廊下
新井小学校,35.67421269,139.8905773,市川市新井1-18-13,047-357-1722,http://www.city.ichikawa.lg.jp/pub01/1211000002.html,ｱﾗｲｼｮｳｶﾞｯｺｳ,1階昇降口
富美浜地域ふれあい館,35.67538547,139.9055026,市川市欠真間2-31-5,047-356-5844,http://www.city.ichikawa.lg.jp/pub01/1211000002.html,ﾌﾐﾊﾏﾁｲｷﾌﾚｱｲｶﾝ,1階管理人室前
いきいきｾﾝﾀ-日之出,35.67805931,139.9236667,市川市日之出8-18,047-397-8221,http://www.city.ichikawa.lg.jp/pub01/1211000002.html,ｲｷｲｷｾﾝﾀ-ﾋﾉﾃﾞ,1階玄関正面
行徳保育園,35.678463,139.9136693,市川市行徳駅前4-22-17,047-395-4843,http://www.city.ichikawa.lg.jp/pub01/1211000002.html,ｷﾞｮｳﾄｸﾎｲｸｴﾝ,1階事務室入口脇
広尾防災公園,35.67868411,139.8893321,市川市広尾2-3,047-359-0155,http://www.city.ichikawa.lg.jp/pub01/1211000002.html,ﾋﾛｵﾎﾞｳｻｲｺｳｴﾝ,管理棟事務室内
香取地域ふれあい館,35.679114,139.909988,市川市香取2-19-1,047-358-3854,http://www.city.ichikawa.lg.jp/pub01/1211000002.html,ｶﾝﾄﾞﾘﾁｲｷﾌﾚｱｲｶﾝ,1階管理人室前
南行徳幼稚園,35.67948053,139.9006453,市川市欠真間1-6-15,047-358-5333,http://www.city.ichikawa.lg.jp/pub01/1211000002.html,ﾐﾅﾐｷﾞｮｳﾄｸﾖｳﾁｴﾝ,職員玄関靴箱横
市川市南消防署,35.67955267,139.9151839,市川市行徳駅前4-6-19,047-397-0119,http://www.city.ichikawa.lg.jp/pub01/1211000002.html,ｲﾁｶﾜｼﾐﾅﾐｼｮｳﾎﾞｳｼｮ,1階階段脇
香取保育園,35.67957464,139.9091299,市川市香取2-6-25,047-357-4191,http://www.city.ichikawa.lg.jp/pub01/1211000002.html,ｶﾝﾄﾞﾘﾎｲｸｴﾝ,1階事務室前壁
新浜幼稚園,35.67974969,139.917007,市川市行徳駅前4-5-2,047-396-2521,http://www.city.ichikawa.lg.jp/pub01/1211000002.html,ﾆｲﾊﾏﾖｳﾁｴﾝ,職員玄関横壁
市川市南消防署広尾出張所,35.67983728,139.890515,市川市広尾2-2-12,047-306-0119,http://www.city.ichikawa.lg.jp/pub01/1211000002.html,ｲﾁｶﾜｼﾐﾅﾐｼｮｳﾎﾞｳｼｮﾋﾛｵｼｭｯﾁｮｳｼﾞｮ,玄関左側
新浜小学校,35.68012883,139.9161788,市川市行徳駅前4-5-1,047-395-5331,http://www.city.ichikawa.lg.jp/pub01/1211000002.html,ﾆｲﾊﾏｼｮｳｶﾞｯｺｳ,職員室前廊下
南行徳公民館,35.68020247,139.8990882,市川市相之川1-3-7,047-356-7371,http://www.city.ichikawa.lg.jp/pub01/1211000002.html,ﾐﾅﾐｷﾞｮｳﾄｸｺｳﾐﾝｶﾝ,玄関左側壁
幸公民館,35.6802735,139.9278121,市川市幸1-16-18,047-398-0481,http://www.city.ichikawa.lg.jp/pub01/1211000002.html,ｻｲﾜｲｺｳﾐﾝｶﾝ,1階受付脇
南行徳小学校,35.68028261,139.900878,市川市欠真間1-6-38,047-357-3126,http://www.city.ichikawa.lg.jp/pub01/1211000002.html,ﾐﾅﾐｷﾞｮｳﾄｸｼｮｳｶﾞｯｺｳ,職員室前廊下壁面
南行徳図書館,35.680842,139.8999063,市川市相之川1-2-4,047-357-4188,http://www.city.ichikawa.lg.jp/pub01/1211000002.html,ﾐﾅﾐｷﾞｮｳﾄｸﾄｼｮｶﾝ,入口内左側
幸小学校,35.68134469,139.9296141,市川市幸1-11-1,047-346-0770,http://www.city.ichikawa.lg.jp/pub01/1211000002.html,ｻｲﾜｲｼｮｳｶﾞｯｺｳ,1階保健室前
いきいきｾﾝﾀ-南行徳,35.68224622,139.903277,市川市香取1-17-18,047-357-1104,http://www.city.ichikawa.lg.jp/pub01/1211000002.html,ｲｷｲｷｾﾝﾀ-ﾐﾅﾐｷﾞｮｳﾄｸ,1階ﾎ-ﾙ
塩焼小学校,35.68414778,139.9298606,市川市塩焼5-9-8,047-397-1231,http://www.city.ichikawa.lg.jp/pub01/1211000002.html,ｼｵﾔｷｼｮｳｶﾞｯｺｳ,事務室前受付ｶｳﾝﾀ-下
市川市東消防署高谷出張所,35.68482422,139.9497814,市川市高谷2023-10,047-327-0119,http://www.city.ichikawa.lg.jp/pub01/1211000002.html,ｲﾁｶﾜｼﾋｶﾞｼｼｮｳﾎﾞｳｼｮｺｳﾔｼｭｯﾁｮｳｼｮ,1階事務所内
塩焼幼稚園,35.684914,139.9297842,市川市塩焼5-9-1,047-397-3857,http://www.city.ichikawa.lg.jp/pub01/1211000002.html,ｼｵﾔｷﾖｳﾁｴﾝ,絵本ｺ-ﾅ-横
湊地域ふれあい館,35.68505,139.910154,市川市湊11-18,047-357-9864,http://www.city.ichikawa.lg.jp/pub01/1211000002.html,ﾐﾅﾄﾁｲｷﾌﾚｱｲｶﾝ,1階管理人室前
行徳図書館,35.68523925,139.9167254,市川市末広1-1-31,047-358-9011,http://www.city.ichikawa.lg.jp/pub01/1211000002.html,ｷﾞｮｳﾄｸﾄｼｮｶﾝ,2階入口脇
塩焼第2保育園,35.68533269,139.9245588,市川市塩焼3-11-15,047-395-5176,http://www.city.ichikawa.lg.jp/pub01/1211000002.html,ｼｵﾔｸﾀﾞｲﾆﾎｲｸｴﾝ,1階玄関脇
行徳支所,35.68566311,139.9163834,市川市末広1-1-31,047-359-1114,http://www.city.ichikawa.lg.jp/pub01/1211000002.html,ｷﾞｮｳﾄｸｼｼｮ,1階公民館入口
行徳文化ﾎ-ﾙI&I,35.68610469,139.9165054,市川市末広1-1-48,047-701-3011,http://www.city.ichikawa.lg.jp/pub01/1211000002.html,ｷﾞｮｳﾄｸﾌﾞﾝｶﾎ-ﾙｱｲｱﾝﾄﾞｱｲ,1階ﾛﾋﾞ-
第七中学校,35.68659986,139.9173566,市川市末広1-1-48,047-357-3183,http://www.city.ichikawa.lg.jp/pub01/1211000002.html,ﾀﾞｲﾅﾅﾁｭｳｶﾞｯｺｳ,新校舎玄関
衛生処理場,35.68794967,139.9609451,市川市二俣新町15,047-327-0288,http://www.city.ichikawa.lg.jp/pub01/1211000002.html,ｴｲｾｲｼｮﾘｼﾞｮｳ,管理棟1階事務室入口脇
妙典中学校,35.68817389,139.9335226,市川市妙典5-22-1,047-395-5811,http://www.city.ichikawa.lg.jp/pub01/1211000002.html,ﾐｮｳﾃﾞﾝﾁｭｳｶﾞｯｺｳ,正面玄関入口奥(保健室前廊下)
塩焼保育園,35.68830583,139.9263963,市川市塩焼2-2-5,047-396-0169,http://www.city.ichikawa.lg.jp/pub01/1211000002.html,ｼｵﾔｷﾎｲｸｴﾝ,1階玄関脇
ｸﾘ-ﾝｾﾝﾀ-,35.68830989,139.9429694,市川市田尻1003,047-327-0288,http://www.city.ichikawa.lg.jp/pub01/1211000002.html,ｸﾘ-ﾝｾﾝﾀ-,中央制御室内
行徳地域ふれあい館,35.68898528,139.921856,市川市富浜2-5-19,047-357-3276,http://www.city.ichikawa.lg.jp/pub01/1211000002.html,ｷﾞｮｳﾄｸﾁｲｷﾌﾚｱｲｶﾝ,1階管理人室前
行徳小学校,35.69249956,139.9232963,市川市富浜1-1-40,047-357-3116,http://www.city.ichikawa.lg.jp/pub01/1211000002.html,ｷﾞｮｳﾄｸｼｮｳｶﾞｯｺｳ,職員玄関
市川市南消防署行徳出張所,35.69426097,139.9181271,市川市本行徳12-10,047-356-0119,http://www.city.ichikawa.lg.jp/pub01/1211000002.html,ｲﾁｶﾜｼﾐﾅﾐｼｮｳﾎﾞｳｼｮｷﾞｮｳﾄｸｼｭｯﾁｮｳｼﾞｮ,玄関
本行徳公民館,35.69453128,139.9182821,市川市本行徳12-8,047-359-1351,http://www.city.ichikawa.lg.jp/pub01/1211000002.html,ﾎﾝｷﾞｮｳﾄｸｺｳﾐﾝｶﾝ,1階ｴﾚﾍﾞ-ﾀ-脇
高谷中学校,35.69471644,139.9453649,市川市高谷1627-4,047-328-0211,http://www.city.ichikawa.lg.jp/pub01/1211000002.html,ｺｳﾔﾁｭｳｶﾞｯｺｳ,職員室前廊下
妙典小学校,35.69589314,139.9292338,市川市妙典2-14-2,047-399-5891,http://www.city.ichikawa.lg.jp/pub01/1211000002.html,ﾐｮｳﾃﾞﾝｼｮｳｶﾞｯｺｳ,1階来賓用玄関下足箱正面(江戸川側入口：ﾋﾟﾝｸのﾄﾞｱ)
身体障害者福祉ｾﾝﾀ-,35.69617106,139.9192672,市川市本行徳1-5,047-357-9165,http://www.city.ichikawa.lg.jp/pub01/1211000002.html,ｼﾝﾀｲｼｮｳｶﾞｲｼｬﾌｸｼｾﾝﾀ-,1階事務室内
二俣小学校,35.6967605,139.9566718,市川市二俣678,047-328-0105,http://www.city.ichikawa.lg.jp/pub01/1211000002.html,ﾌﾀﾏﾀｼｮｳｶﾞｯｺｳ,事務室と給湯室の出入口間の壁
信篤小学校,35.69809792,139.9438999,市川市原木2-16-1,047-328-0165,http://www.city.ichikawa.lg.jp/pub01/1211000002.html,ｼﾝﾄｸｼｮｳｶﾞｯｺｳ,1階職員室前
信篤幼稚園,35.70151619,139.9415841,市川市高谷1-8-1,047-328-2325,http://www.city.ichikawa.lg.jp/pub01/1211000002.html,ｼﾝﾄｸﾖｳﾁｴﾝ,1階職員室横
信篤市民体育館,35.70165089,139.9421699,市川市高谷1-8-2,047-327-6336,http://www.city.ichikawa.lg.jp/pub01/1211000002.html,ｼﾝﾄｸｼﾐﾝﾀｲｸｶﾝ,入口右側
信篤公民館,35.701714,139.941731,市川市高谷1-8-1,047-327-6807,http://www.city.ichikawa.lg.jp/pub01/1211000002.html,ｼﾝﾄｸｺｳﾐﾝｶﾝ,1階受付窓口
いきいきｾﾝﾀ-田尻,35.70376758,139.933531,市川市田尻4-13-3,047-379-8631,http://www.city.ichikawa.lg.jp/pub01/1211000002.html,ｲｷｲｷｾﾝﾀ-ﾀｼﾞﾘ,1階玄関下駄箱脇
地方卸売市場,35.71034256,139.9285991,市川市鬼高4-5-1,047-378-3611,http://www.city.ichikawa.lg.jp/pub01/1211000002.html,ﾁﾎｳｵﾛｼｳﾘｲﾁﾊﾞ,守衛室
第六中学校,35.71096739,139.9360709,市川市鬼高3-16-1,047-370-0535,http://www.city.ichikawa.lg.jp/pub01/1211000002.html,ﾀﾞｲﾛｸﾁｭｳｶﾞｯｺｳ,職員室前廊下
こども発達ｾﾝﾀ-分館,35.711448,139.921344,市川市稲荷木1-14-1,047-712-6555,http://www.city.ichikawa.lg.jp/pub01/1211000002.html,ｺﾄﾞﾓﾊｯﾀﾂｾﾝﾀ-ﾌﾞﾝｶﾝ,1階市川市そよかぜｷッｽﾞ
鬼高保育園,35.71144831,139.9322476,市川市鬼高1-11-20,047-378-8186,http://www.city.ichikawa.lg.jp/pub01/1211000002.html,ｵﾆﾀｶﾎｲｸｴﾝ,1階事務室
稲荷木保育園,35.71164358,139.9246551,市川市稲荷木1-26-16,047-377-5070,http://www.city.ichikawa.lg.jp/pub01/1211000002.html,ﾄｳｶｷﾞﾎｲｸｴﾝ,事務室
稲荷木小学校,35.71177189,139.9218481,市川市稲荷木1-14-1,047-376-5961,http://www.city.ichikawa.lg.jp/pub01/1211000002.html,ﾄｳｶｷﾞｼｮｳｶﾞｯｺｳ,職員玄関
鬼高公民館,35.71288506,139.9386817,市川市鬼高2-12-23,047-334-2612,http://www.city.ichikawa.lg.jp/pub01/1211000002.html,ｵﾆﾀｶｺｳﾐﾝｶﾝ,1階事務室前廊下
勤労福祉ｾﾝﾀ-,35.71375072,139.9273543,市川市南八幡2-20-1,047-370-5201,http://www.city.ichikawa.lg.jp/pub01/1211000002.html,ｷﾝﾛｳﾌｸｼｾﾝﾀ-,1階
鬼高小学校,35.71413914,139.9372796,市川市鬼高2-13-5,047-335-0304,http://www.city.ichikawa.lg.jp/pub01/1211000002.html,ｵﾆﾀｶｼｮｳｶﾞｯｺｳ,A棟1階職員室向かい
生涯学習ｾﾝﾀ- ﾒﾃﾞィｱﾊﾟ-ｸ市川,35.71584694,139.9322861,市川市鬼高1-1-4,047-320-3335,http://www.city.ichikawa.lg.jp/pub01/1211000002.html,ｼｮｳｶﾞｲｶﾞｸｼｭｳｾﾝﾀ-ﾒﾃﾞｨｱﾊﾟ-ｸｲﾁｶﾜ,3階教育ｾﾝﾀ-事務室･ｴﾝﾄﾗﾝｽ内中央図書館入口向かって左側壁
東大和田保育園,35.71595311,139.9233337,市川市東大和田2-6-2,047-378-2829,http://www.city.ichikawa.lg.jp/pub01/1211000002.html,ﾋｶﾞｼｵｵﾜﾀﾞﾎｲｸｴﾝ,1階廊下左側靴箱上
大洲保育園,35.71606033,139.9118171,市川市大洲2-3-8,047-378-3331,http://www.city.ichikawa.lg.jp/pub01/1211000002.html,ｵｵｽﾎｲｸｴﾝ,職員玄関
南八幡仮設庁舎,35.716168,139.929526,市川市南八幡1-17-15,047-383-9542,http://www.city.ichikawa.lg.jp/pub01/1211000002.html,ﾐﾅﾐﾔﾜﾀｶｾﾂﾁｮｳｼｬ,生活支援課正面玄関向かって左側(面談室1付近)
鬼越・鬼高地域ふれあい館,35.716454,139.938118,市川市鬼越2-15-10,047-335-9838,http://www.city.ichikawa.lg.jp/pub01/1211000002.html,ｵﾆｺﾞｴｵﾆﾀｶﾁｲｷﾌﾚｱｲｶﾝ,1階管理人室前
文化会館,35.71675706,139.9210136,市川市大和田1-1-5,047-379-5111,http://www.city.ichikawa.lg.jp/pub01/1211000002.html,ﾌﾞﾝｶｶｲｶﾝ,事務室
中山窓口連絡所,35.71720497,139.9459821,市川市中山4-14-1,047-332-6661,http://www.city.ichikawa.lg.jp/pub01/1211000002.html,ﾅｶﾔﾏﾏﾄﾞｸﾞﾁﾚﾝﾗｸｼﾞｮ,事務室内
清華園,35.71720497,139.9459821,市川市中山4-14-1,047-333-6147,http://www.city.ichikawa.lg.jp/pub01/1211000002.html,ｾｲｶｴﾝ,事務室前
大和田小学校,35.71735181,139.9211911,市川市大和田1-1-3,047-378-5001,http://www.city.ichikawa.lg.jp/pub01/1211000002.html,ｵｵﾜﾀﾞｼｮｳｶﾞｯｺｳ,校舎1階職員室前廊下壁面
保健ｾﾝﾀ-,35.71744631,139.9239171,市川市南八幡4-18-8,047-377-4511,http://www.city.ichikawa.lg.jp/pub01/1211000002.html,ﾎｹﾝｾﾝﾀ-,2階受付横
市川市西消防署大洲出張所,35.71780961,139.9108572,市川市大洲1-18-1,047-376-0119,http://www.city.ichikawa.lg.jp/pub01/1211000002.html,ｲﾁｶﾜｼﾆｼﾞｼｼｮｳﾎﾞｳｼｮｵｵｽｼｭｯﾁｮｳｼﾞｮ,1階受付前
鶴指小学校,35.71786033,139.9158973,市川市大和田4-11-1,047-379-3588,http://www.city.ichikawa.lg.jp/pub01/1211000002.html,ﾂﾙｻｼｼｮｳｶﾞｯｺｳ,1階職員室前廊下
急病診療所,35.71796281,139.9109015,市川市大洲1-18-1,047-377-1222,http://www.city.ichikawa.lg.jp/pub01/1211000002.html,ｷｭｳﾋﾞｮｳｼﾝﾘｮｳｼｮ,待合室
大和田保育園,35.71868025,139.9163734,市川市大和田4-4-1,047-377-1700,http://www.city.ichikawa.lg.jp/pub01/1211000002.html,ｵｵﾜﾀﾞﾎｲｸｴﾝ,玄関脇靴箱上
八幡地域ふれあい館,35.71884844,139.932323,市川市八幡1-21-10,047-332-5538,http://www.city.ichikawa.lg.jp/pub01/1211000002.html,ﾔﾜﾀﾁｲｷﾌﾚｱｲｶﾝ,1階管理人室向かい
勤労福祉ｾﾝﾀ-分館,35.71895647,139.9209165,市川市南八幡5-20-3,047-370-1357,http://www.city.ichikawa.lg.jp/pub01/1211000002.html,ｷﾝﾛｳﾌｸｼｾﾝﾀ-ﾌﾞﾝｶﾝ,1階
第八中学校,35.71923108,139.914915,市川市大和田4-9-1,047-370-1394,http://www.city.ichikawa.lg.jp/pub01/1211000002.html,ﾀﾞｲﾊﾁﾁｭｳｶﾞｯｺｳ,保健室
市川市消防局,35.71941433,139.9347001,市川市八幡1-8-1,047-333-2111,http://www.city.ichikawa.lg.jp/pub01/1211000002.html,ｲﾁｶﾜｼｼｮｳﾎﾞｳｷｮｸ,3階事務室内
市川市東消防署,35.71956764,139.934645,市川市八幡1-8-1,047-334-0119,http://www.city.ichikawa.lg.jp/pub01/1211000002.html,ｲﾁｶﾜｼﾋｶﾞｼｼｮｳﾎﾞｳｼｮ,1階受付内
いきいきｾﾝﾀ-鬼越,35.72016806,139.9387023,市川市鬼越1-25-3,047-335-5779,http://www.city.ichikawa.lg.jp/pub01/1211000002.html,ｲｷｲｷｾﾝﾀ-ｵﾆｺﾞｴ,1階廊下
いちかわ情報ﾌﾟﾗｻﾞ,35.72054761,139.9265885,市川市南八幡4-2-5-201,047-300-8020,http://www.city.ichikawa.lg.jp/pub01/1211000002.html,ｲﾁｶﾜｼﾞｮｳﾎｳﾌﾟﾗｻﾞ,2階文化振興課入口扉前
大洲幼稚園,35.72099217,139.9097218,市川市大洲4-3-12,047-370-3648,http://www.city.ichikawa.lg.jp/pub01/1211000002.html,ｵｵｽﾖｳﾁｴﾝ,職員玄関ﾎ-ﾙ
大洲中学校,35.72116489,139.9073897,市川市大洲4-21-5,047-378-5783,http://www.city.ichikawa.lg.jp/pub01/1211000002.html,ｵｵｽﾁｭｳｶﾞｯｺｳ,職員玄関事務室前
中山小学校,35.72149736,139.9439654,市川市中山1-1-5,047-335-2711,http://www.city.ichikawa.lg.jp/pub01/1211000002.html,ﾅｶﾔﾏｼｮｳｶﾞｯｺｳ,事務室前廊下
市役所仮本庁舎,35.713697,139.927961,市川市南八幡2-20-2,047-712-8647,http://www.city.ichikawa.lg.jp/pub01/1211000002.html,ｼﾔｸｼｮｶﾘﾎﾝﾁｮｳｼｬ,1階総合受付脇
第四中学校,35.72200047,139.9457125,市川市中山1-11-1,047-335-3431,http://www.city.ichikawa.lg.jp/pub01/1211000002.html,ﾀﾞｲﾖﾝﾁｭｳｶﾞｯｺｳ,1棟1階情報ｺ-ﾅ-
本八幡地域ふれあい館,35.722031,139.92468,市川市八幡3-7-9,047-326-2452,http://www.city.ichikawa.lg.jp/pub01/1211000002.html,ﾓﾄﾔﾜﾀﾁｲｷﾌﾚｱｲｶﾝ,1階管理人室前
北方保育園,35.72203439,139.93813,市川市北方1-12-1,047-334-6616,http://www.city.ichikawa.lg.jp/pub01/1211000002.html,ｷﾀｶﾀﾎｲｸｴﾝ,1階3歳児室前廊下
市川市分庁舎C棟,35.714055,139.926936,市川市東大和田1-2-10,047-712-8641,http://www.city.ichikawa.lg.jp/pub01/1211000002.html,ｲﾁｶﾜｼﾌﾞﾝﾁｮｳｼｬｼｰﾄｳ,保健医療課執務室
ﾎﾞﾗﾝﾃｨｱ･NPO活動ｾﾝﾀｰ,35.722423,139.926038,市川市八幡3-4-1 ｱｸｽ本八幡2階,047-711-0677,http://www.city.ichikawa.lg.jp/pub01/1211000002.html,ﾎﾞﾗﾝﾃｨｱ･ｴﾇﾋﾟｰｵｰｶﾂﾄﾞｳｾﾝﾀｰ,子育て支援課内
若宮公民館,35.72244136,139.9557497,市川市若宮2-15-8,047-336-7958,http://www.city.ichikawa.lg.jp/pub01/1211000002.html,ﾜｶﾐﾔｺｳﾐﾝｶﾝ,1階展示ｺ-ﾅ-内
八幡市民談話室,35.72252953,139.9279614,市川市八幡2-4-8,047-712-8647,http://www.city.ichikawa.lg.jp/pub01/1211000002.html,ﾔﾜﾀｼﾐﾝﾀﾞﾝﾜｼﾂ,1階総合受付脇
こども発達ｾﾝﾀ-,35.72267975,139.9064626,市川市大洲4-18-3,047-370-3561,http://www.city.ichikawa.lg.jp/pub01/1211000002.html,ｺﾄﾞﾓﾊｯﾀﾂｾﾝﾀ-,1階市川駅南公民館事務室受付横
東山魁夷記念館,35.72280206,139.9464211,市川市中山1-16-2,047-333-2011,http://www.city.ichikawa.lg.jp/pub01/1211000002.html,ﾋｶﾞｼﾔﾏｶｲｲｷﾈﾝｶﾝ,受付奥
市役所八幡分庁舎,35.72346511,139.9303059,市川市八幡4-2-1,047-332-8739,http://www.city.ichikawa.lg.jp/pub01/1211000002.html,ｼﾔｸｼｮﾔﾜﾀﾌﾞﾝﾁｮｳｼｬ,1階玄関ﾎ-ﾙ左側
新田保育園,35.72353264,139.9118244,市川市新田3-21-1,047-370-4557,http://www.city.ichikawa.lg.jp/pub01/1211000002.html,ｼﾝﾃﾞﾝﾎｲｸｴﾝ,玄関右側
八幡市民会館(全日警ﾎｰﾙ),35.723555,139.931013,市川市八幡4-2-1,047-300-8020,http://www.city.ichikawa.lg.jp/pub01/1211000002.html,ﾔﾜﾀｼﾐﾝｶｲｶﾝ(ｾﾞﾝﾆｯｹｲﾎｰﾙ),1階ｴﾝﾄﾗﾝｽ
大洲小学校,35.72356278,139.9069056,市川市大洲4-18-1,047-370-0300,http://www.city.ichikawa.lg.jp/pub01/1211000002.html,ｵｵｽｼｮｳｶﾞｯｺｳ,保健室前廊下
中央公民館,35.723839,139.930382,市川市八幡4-2-1,047-334-4279,http://www.city.ichikawa.lg.jp/pub01/1211000002.html,ﾁｭｳｵｳｺｳﾐﾝｶﾝ,1階廊下階段横情報ｺ-ﾅ-壁面
平田小学校,35.72411428,139.9180813,市川市平田3-28-1,047-379-6761,http://www.city.ichikawa.lg.jp/pub01/1211000002.html,ﾋﾗﾀｼｮｳｶﾞｯｺｳ,第1校舎1階保健室脇
若宮保育園,35.72425714,139.9517289,市川市若宮3-7-6,047-334-2115,http://www.city.ichikawa.lg.jp/pub01/1211000002.html,ﾜｶﾐﾔﾎｲｸｴﾝ,正面玄関入口
市川市東消防署中山出張所,35.72429742,139.9473738,市川市北方3-10-11,047-332-0119,http://www.city.ichikawa.lg.jp/pub01/1211000002.html,ｲﾁｶﾜｼﾋｶﾞｼｼｮｳﾎﾞｳｼｮﾅｶﾔﾏｼｭｯﾁｮｳｼﾞｮ,1階受付内
平田図書室,35.72469008,139.9195853,市川市平田1-20-16,047-321-2243,http://www.city.ichikawa.lg.jp/pub01/1211000002.html,ﾋﾗﾀﾄｼｮｼﾂ,事務室入口横
平田保育園,35.72473525,139.9194637,市川市平田1-20-16,047-324-1311,http://www.city.ichikawa.lg.jp/pub01/1211000002.html,ﾋﾗﾀﾎｲｸｴﾝ,事務室
平田地域ふれあい館,35.724753,139.918175,市川市平田2-16-7,047-322-4467,http://www.city.ichikawa.lg.jp/pub01/1211000002.html,ﾋﾗﾀﾁｲｷﾌﾚｱｲｶﾝ,1階管理人室前
新田第2保育園,35.72526019,139.9164024,市川市新田2-1-24,047-376-9036,http://www.city.ichikawa.lg.jp/pub01/1211000002.html,ｼﾝﾃﾞﾝﾀﾞｲﾆﾎｲｸｴﾝ,玄関左側
いきいきｾﾝﾀ-北方,35.725466,139.9410637,市川市北方2-29-19,047-332-3846,http://www.city.ichikawa.lg.jp/pub01/1211000002.html,ｲｷｲｷｾﾝﾀ-ｷﾀｶﾀ,管理事務所受付前
八幡小学校,35.72589142,139.9282307,市川市八幡3-24-1,047-325-4763,http://www.city.ichikawa.lg.jp/pub01/1211000002.html,ﾔﾜﾀｼｮｳｶﾞｯｺｳ,職員ﾄｲﾚ前
市川南仮設庁舎,35.726143,139.904851,市川市市川南2-9-12,047-712-8647,http://www.city.ichikawa.lg.jp/pub01/1211000002.html,ｲﾁｶﾜｼﾐﾅﾐｶｾﾂﾁｮｳｼｬ,1階管財課車両担当執務室内
若宮小学校,35.72666328,139.9522409,市川市若宮3-54-10,047-339-2177,http://www.city.ichikawa.lg.jp/pub01/1211000002.html,ﾜｶﾐﾔｼｮｳｶﾞｯｺｳ,職員室前廊下
市川南保育園,35.7269635,139.9025866,市川市市川南4-1-15,047-324-1155,http://www.city.ichikawa.lg.jp/pub01/1211000002.html,ｲﾁｶﾜﾐﾅﾐﾎｲｸｴﾝ,玄関内
宮田小学校,35.72699561,139.9091527,市川市新田4-8-15,047-379-7647,http://www.city.ichikawa.lg.jp/pub01/1211000002.html,ﾐﾔﾀｼｮｳｶﾞｯｺｳ,保健室前廊下
冨貴島小学校,35.72713658,139.9375729,市川市八幡6-10-11,047-334-2624,http://www.city.ichikawa.lg.jp/pub01/1211000002.html,ﾌｷｼﾏｼｮｳｶﾞｯｺｳ,第1校舎1階廊下の職員室と保健室の間の壁面
宮田地域ふれあい館,35.72767939,139.911121,市川市新田5-16-6,047-324-4525,http://www.city.ichikawa.lg.jp/pub01/1211000002.html,ﾐﾔﾀﾁｲｷﾌﾚｱｲｶﾝ,1階玄関
市川駅行政ｻ-ﾋﾞｽｾﾝﾀ-,35.72810483,139.9082473,市川市市川南1-1-1 I-LINKﾀｳﾝいちかわｻﾞ･ﾀﾜ-ｽﾞｲ-ｽﾄ3階,047-704-3115,http://www.city.ichikawa.lg.jp/pub01/1211000002.html,ｲﾁｶﾜｴｷｷﾞｮｳｾｲｻ-ﾋﾞｽｾﾝﾀ-,正面入口内側自動ﾄﾞｱ右側壁際
富貴島保育園,35.72846333,139.9355406,市川市八幡6-14-19,047-336-1144,http://www.city.ichikawa.lg.jp/pub01/1211000002.html,ﾌｷｼﾏﾎｲｸｴﾝ,2階本棚の上
東部公民館,35.72872886,139.9507738,市川市本北方3-19-16,047-337-8886,http://www.city.ichikawa.lg.jp/pub01/1211000002.html,ﾄｳﾌﾞｺｳﾐﾝｶﾝ,1階ﾎ-ﾙ
いちかわ観光・物産案内所,35.72910533,139.9082704,市川市市川1-1-1,047-324-7751,http://www.city.ichikawa.lg.jp/pub01/1211000002.html,ｲﾁｶﾜｶﾝｺｳ・ﾌﾞｯｻﾝｱﾝﾅｲｼﾞｮ,事務室奥
市川駅南口図書館,35.72918783,139.9060374,市川市市川南1-10-1 I-LINKﾀｳﾝいちかわｻﾞ・ﾀﾜ-ｽﾞｳｴｽﾄ3階,047-325-6241,http://www.city.ichikawa.lg.jp/pub01/1211000002.html,ｲﾁｶﾜｴｷﾐﾅﾐｸﾞﾁﾄｼｮｶﾝ,入口右側
市川市ｱｲ・ﾘﾝｸﾀｳﾝ展望施設,35.7293,139.905937,市川市市川南1-10-1 I-LINKﾀｳﾝいちかわｻﾞ･ﾀﾜ-ｽﾞｳｴｽﾄ45階,047-322-9300,http://www.city.ichikawa.lg.jp/pub01/1211000002.html,ｲﾁｶﾜｼｱｲ・ﾘﾝｸﾀﾜ-ﾃﾝﾎﾞｳｼｾﾂ,45階展望ﾛﾋﾞ-付近
男女共同参画ｾﾝﾀ- ｳィｽﾞ,35.73000539,139.9103826,市川市市川1-24-2,047-322-6700,http://www.city.ichikawa.lg.jp/pub01/1211000002.html,ﾀﾞﾝｼﾞｮｷｮｳﾄﾞｳｻﾝｶｸｾﾝﾀ-ｳｨｽﾞ,4階受付窓口入口付近
市川市西消防署,35.73010447,139.910449,市川市市川1-24-2,047-323-0119,http://www.city.ichikawa.lg.jp/pub01/1211000002.html,ｲﾁｶﾜｼﾆｼﾞｼｼｮｳﾎﾞｳｼｮ,2階事務室前
本北方保育園,35.73016264,139.9501569,市川市本北方2-40-23,047-338-5982,http://www.city.ichikawa.lg.jp/pub01/1211000002.html,ﾓﾄｷﾀｶﾀﾎｲｸｴﾝ,職員玄関
市川地域ふれあい館,35.730911,139.903559,市川市市川2-7-7,047-322-7710,http://www.city.ichikawa.lg.jp/pub01/1211000002.html,ｲﾁｶﾜﾁｲｷﾌﾚｱｲｶﾝ,1階管理人室前
市川公民館,35.73099925,139.9065918,市川市市川2-33-2,047-321-1171,http://www.city.ichikawa.lg.jp/pub01/1211000002.html,ｲﾁｶﾜｺｳﾐﾝｶﾝ,ﾛﾋﾞ-事務室出入口傍
いきいきｾﾝﾀ-市川,35.73143225,139.9060174,市川市市川2-33-6,047-322-2277,http://www.city.ichikawa.lg.jp/pub01/1211000002.html,ｲｷｲｷｾﾝﾀ-ｲﾁｶﾜ,3階廊下
市川小学校,35.73170331,139.9049564,市川市市川2-32-5,047-325-4758,http://www.city.ichikawa.lg.jp/pub01/1211000002.html,ｲﾁｶﾜｼｮｳｶﾞｯｺｳ,管理棟1階校長室前廊下
北方小学校,35.73241156,139.9453845,市川市北方町4-1356-1,047-339-1701,http://www.city.ichikawa.lg.jp/pub01/1211000002.html,ｷﾀｶﾀｼｮｳｶﾞｯｺｳ,職員玄関傍
菅野公民館,35.73273867,139.9168695,市川市菅野3-24-2,047-322-7761,http://www.city.ichikawa.lg.jp/pub01/1211000002.html,ｽｶﾞﾉｺｳﾐﾝｶﾝ,1階受付脇
菅野保育園,35.73286875,139.9272661,市川市菅野4-12-16,047-326-4452,http://www.city.ichikawa.lg.jp/pub01/1211000002.html,ｽｶﾞﾉﾎｲｸｴﾝ,1階事務室
菅野小学校,35.73468814,139.9168654,市川市菅野6-14-1,047-324-5955,http://www.city.ichikawa.lg.jp/pub01/1211000002.html,ｽｶﾞﾉｼｮｳｶﾞｯｺｳ,職員室前廊下
大柏川第一調節池緑地,35.73501122,139.9509046,市川市北方町4-1444-59,047-337-7111,http://www.city.ichikawa.lg.jp/pub01/1211000002.html,ｵｵｶﾞｼﾜｶﾞﾜﾀﾞｲｲﾁﾁｮｳｾﾂﾁﾘｮｸﾁ,事務室
市川市市民ﾌﾟ-ﾙ,35.73501781,139.95337,市川市北方町4-2270-3,047-338-7346,http://www.city.ichikawa.lg.jp/pub01/1211000002.html,ｲﾁｶﾜｼｼﾐﾝﾌﾟ-ﾙ,医務室内
宮久保保育園,35.73502225,139.9390093,市川市宮久保3-17-10,047-374-1510,http://www.city.ichikawa.lg.jp/pub01/1211000002.html,ﾐﾔｸﾎﾞﾎｲｸｴﾝ,玄関
菅野終末処理場,35.73555442,139.9277558,市川市東菅野2-23-1,047-325-0144,http://www.city.ichikawa.lg.jp/pub01/1211000002.html,ｽｶﾞﾉｼｭｳﾏﾂｼｮﾘｼﾞｮｳ,2階ﾎ-ﾙ内
宮久保小学校,35.73682039,139.9441414,市川市宮久保5-7-1,047-371-2747,http://www.city.ichikawa.lg.jp/pub01/1211000002.html,ﾐﾔｸﾎﾞｼｮｳｶﾞｯｺｳ,職員室前廊下壁面
いきいきｾﾝﾀ-宮久保,35.73693567,139.9361042,市川市宮久保4-2-4,047-372-5755,http://www.city.ichikawa.lg.jp/pub01/1211000002.html,ｲｷｲｷｾﾝﾀ-ﾐﾔｸﾎﾞ,1階ﾎ-ﾙ
真間小学校,35.73770314,139.910191,市川市真間4-1-1,047-372-4726,http://www.city.ichikawa.lg.jp/pub01/1211000002.html,ﾏﾏｼｮｳｶﾞｯｺｳ,第4昇降口(職員室横)
須和田の丘特別支援学校,35.73814272,139.9134197,市川市須和田2-34-1,047-371-2258,http://www.city.ichikawa.lg.jp/pub01/1211000002.html,ｽﾜﾀﾞﾉｵｶﾄｸﾍﾞﾂｼｴﾝｶﾞｯｺｳ,管理棟1階保健室前
第二中学校,35.73931428,139.9137304,市川市須和田2-34-1,047-371-6188,http://www.city.ichikawa.lg.jp/pub01/1211000002.html,ﾀﾞｲﾆﾁｭｳｶﾞｯｺｳ,1階職員玄関右側通路壁面
柏井小学校,35.73942053,139.9666324,市川市柏井町1-1149-1,047-337-8877,http://www.city.ichikawa.lg.jp/pub01/1211000002.html,ｶｼﾜｲｼｮｳｶﾞｯｺｳ,職員室前廊下
下貝塚中学校,35.73966725,139.9456931,市川市下貝塚3-13-1,047-371-8800,http://www.city.ichikawa.lg.jp/pub01/1211000002.html,ｼﾓｶｲﾂﾞｶﾁｭｳｶﾞｯｺｳ,職員室前廊下
木内ｷﾞャﾗﾘ-,35.73968628,139.9099608,市川市真間4-11-4,047-371-4916,http://www.city.ichikawa.lg.jp/pub01/1211000002.html,ｷｳﾁｷﾞｬﾗﾘ-,1階ﾎ-ﾙ
芳澤ｶﾞ-ﾃﾞﾝｷﾞャﾗﾘ-,35.73974267,139.9115215,市川市真間5-1-18,047-374-7687,http://www.city.ichikawa.lg.jp/pub01/1211000002.html,ﾖｼｻﾞﾜｶﾞ-ﾃﾞﾝｷﾞｬﾗﾘ-,事務所前
百合台小学校,35.74008883,139.9270424,市川市曽谷6-10-1,047-374-1811,http://www.city.ichikawa.lg.jp/pub01/1211000002.html,ﾕﾘﾀﾞｲｼｮｳｶﾞｯｺｳ,校舎1階職員室
第三中学校,35.74033678,139.9325818,市川市曽谷3-2-1,047-371-7341,http://www.city.ichikawa.lg.jp/pub01/1211000002.html,ﾀﾞｲｻﾝﾁｭｳｶﾞｯｺｳ,職員玄関
百合台幼稚園,35.74038739,139.9255724,市川市曽谷6-10-1,047-373-8937,http://www.city.ichikawa.lg.jp/pub01/1211000002.html,ﾕﾘﾀﾞｲﾖｳﾁｴﾝ,玄関ﾎ-ﾙ
郭沫若記念館,35.74106364,139.9126376,市川市真間5-3-19,047-372-5400,http://www.city.ichikawa.lg.jp/pub01/1211000002.html,ｶｸﾏﾂｼﾞｬｸｷﾈﾝｶﾝ,事務室
大野小学校,35.74224008,139.9509816,市川市南大野1-42-1,047-338-3000,http://www.city.ichikawa.lg.jp/pub01/1211000002.html,ｵｵﾉｼｮｳｶﾞｯｺｳ,職員玄関入口
国府台市民体育館,35.74285144,139.9077525,市川市国府台1-6-4,047-373-3112,http://www.city.ichikawa.lg.jp/pub01/1211000002.html,ｺｳﾉﾀﾞｲｼﾐﾝﾀｲｸｶﾝ,1階ﾛﾋﾞ-
大野保育園,35.74288706,139.953028,市川市南大野2-4-5,047-337-4551,http://www.city.ichikawa.lg.jp/pub01/1211000002.html,ｵｵﾉﾎｲｸｴﾝ,正面玄関内
松香園,35.74325169,139.916023,市川市国分3-20-2,047-373-0482,http://www.city.ichikawa.lg.jp/pub01/1211000002.html,ｼｮｳｶｴﾝ,1階事務所受付
曽谷公民館,35.74360389,139.9273672,市川市曽谷6-25-5,047-372-2871,http://www.city.ichikawa.lg.jp/pub01/1211000002.html,ｿﾔｺｳﾐﾝｶﾝ,玄関内部壁面
奉免地域ふれあい館,35.743964,139.958862,市川市柏井町2-49-6,047-338-5407,http://www.city.ichikawa.lg.jp/pub01/1211000002.html,ﾎｳﾒﾁｲｷﾌﾚｱｲｶﾝ,1階管理人室前
市川市西消防署国府台出張所,35.74435814,139.9054763,市川市国府台1-6-8,047-372-0119,http://www.city.ichikawa.lg.jp/pub01/1211000002.html,ｲﾁｶﾜｼﾆｼﾞｼｼｮｳﾎﾞｳｼｮｺｳﾉﾀﾞｲｼｭｯﾁｮｳｼﾞｮ,1階受付前
第一中学校,35.74465811,139.9010871,市川市国府台2-7-1,047-371-6045,http://www.city.ichikawa.lg.jp/pub01/1211000002.html,ﾀﾞｲｲﾁﾁｭｳｶﾞｯｺｳ,職員室前ﾄｲﾚ横
国分小学校,35.74506911,139.9207018,市川市東国分2-4-1,047-371-6793,http://www.city.ichikawa.lg.jp/pub01/1211000002.html,ｺｸﾌﾞﾝｼｮｳｶﾞｯｺｳ,職員玄関内
市川市北消防署曽谷出張所,35.74514739,139.9357278,市川市曽谷2-7-2,047-374-0119,http://www.city.ichikawa.lg.jp/pub01/1211000002.html,ｲﾁｶﾜｼｷﾀｼｮｳﾎﾞｳｼｮｿﾔｼｭｯﾁｮｳｼﾞｮ,玄関
大柏出張所,35.7453025,139.9532306,市川市南大野2-3-19,047-339-1111,http://www.city.ichikawa.lg.jp/pub01/1211000002.html,ｵｵｶﾞｼﾜｼｭｯﾁｮｳｼｮ,2階公民館事務室前
いちかわ市民ｷャﾝﾌﾟ場,35.74539567,139.9737945,市川市柏井町2-992-1,047-337-9802,http://www.city.ichikawa.lg.jp/pub01/1211000002.html,ｲﾁｶﾜｼﾐﾝｷｬﾝﾌﾟｼﾞｮｳ,2階事務所内
柏井公民館,35.74596578,139.965405,市川市柏井町2-844,047-338-2988,http://www.city.ichikawa.lg.jp/pub01/1211000002.html,ｶｼﾜｲｺｳﾐﾝｶﾝ,1階受付脇
里見公園,35.74663275,139.8999279,市川市国府台3-9,047-372-0062,http://www.city.ichikawa.lg.jp/pub01/1211000002.html,ｻﾄﾐｺｳｴﾝ,管理棟事務所内
曽谷小学校,35.74711975,139.9266305,市川市曽谷7-18-1,047-371-7888,http://www.city.ichikawa.lg.jp/pub01/1211000002.html,ｿﾔｼｮｳｶﾞｯｺｳ,職員室前
曽谷保育園,35.74847236,139.9259245,市川市曽谷7-28-15,047-373-5530,http://www.city.ichikawa.lg.jp/pub01/1211000002.html,ｿﾔﾎｲｸｴﾝ,玄関脇
中国分保育園,35.74875247,139.9123357,市川市中国分2-13-1,047-372-7947,http://www.city.ichikawa.lg.jp/pub01/1211000002.html,ﾅｶｺｸﾌﾞﾝﾎｲｸｴﾝ,玄関横
東国分中学校,35.74887125,139.9229284,市川市東国分3-5-1,047-371-5963,http://www.city.ichikawa.lg.jp/pub01/1211000002.html,ﾋｶﾞｼｺｸﾌﾞﾝﾁｭｳｶﾞｯｺｳ,職員玄関
西部公民館,35.74926567,139.9132097,市川市中国分2-13-8,047-373-8175,http://www.city.ichikawa.lg.jp/pub01/1211000002.html,ｾｲﾌﾞｺｳﾐﾝｶﾝ,玄関ﾛﾋﾞ-
中国分ｽﾎﾟ-ﾂ広場,35.75001675,139.9085995,市川市中国分4-25,047-327-5855,http://www.city.ichikawa.lg.jp/pub01/1211000002.html,ﾅｶｺｸﾌﾞﾝｽﾎﾟ-ﾂﾋﾛﾊﾞ,管理事務所内
明松園,35.75013106,139.9130889,市川市中国分2-17-21,047-372-9017,http://www.city.ichikawa.lg.jp/pub01/1211000002.html,ﾒｲｼｮｳｴﾝ,事務所内ｶｳﾝﾀ-
大柏小学校,35.75027739,139.9538462,市川市大野町2-1877,047-337-8141,http://www.city.ichikawa.lg.jp/pub01/1211000002.html,ｵｵｶﾞｼﾜｼｮｳｶﾞｯｺｳ,1階職員室前
市川市北消防署,35.75101467,139.9601875,市川市大野町4-2163-1,047-338-0119,http://www.city.ichikawa.lg.jp/pub01/1211000002.html,ｲﾁｶﾜｼｷﾀｼｮｳﾎﾞｳｼｮ,1階受付内
ﾘﾊﾋﾞﾘﾃ-ｼョﾝ病院,35.75130264,139.9646509,市川市柏井町4-229-4,047-320-7111,http://www.city.ichikawa.lg.jp/pub01/1211000002.html,ﾘﾊﾋﾞﾘﾃ-ｼｮﾝﾋﾞｮｳｲﾝ,病院外来ｶｳﾝﾀ-
万葉植物園,35.752784,139.9530096,市川市大野町2-1857,047-337-9866,http://www.city.ichikawa.lg.jp/pub01/1211000002.html,ﾏﾝﾖｳｼｮｸﾌﾞﾂｴﾝ,管理棟事務所内
第五中学校,35.75314964,139.9568914,市川市大野町3-1993,047-337-8344,http://www.city.ichikawa.lg.jp/pub01/1211000002.html,ﾀﾞｲｺﾞﾁｭｳｶﾞｯｺｳ,職員室前廊下
国府台ﾃﾞｲｻ-ﾋﾞｽｾﾝﾀ-,35.75346303,139.9035273,市川市国府台5-25-4,047-375-0853,http://www.city.ichikawa.lg.jp/pub01/1211000002.html,ｺｳﾉﾀﾞｲﾃﾞｲｻ-ﾋﾞｽｾﾝﾀ-,事務室横廊下
国府台小学校,35.75353067,139.9028525,市川市国府台5-25-4,047-372-4672,http://www.city.ichikawa.lg.jp/pub01/1211000002.html,ｺｳﾉﾀﾞｲｼｮｳｶﾞｯｺｳ,第3校舎1階職員室前
中国分小学校,35.75356311,139.9162327,市川市中国分1-22-1,047-371-7886,http://www.city.ichikawa.lg.jp/pub01/1211000002.html,ﾅｶｺｸﾌﾞﾝｼｮｳｶﾞｯｺｳ,職員室前廊下
J:COM北市川ｽﾎﾟｰﾂﾊﾟｰｸ,35.753978,139.9672,市川市柏井町4-277-1,047-337-1810,http://www.city.ichikawa.lg.jp/pub01/1211000002.html,ｼﾞｪｲｺﾑｷﾀｲﾁｶﾜｽﾎﾟｰﾂﾊﾟｰｸ,医務室内
須和田の丘特別支援学校稲越校舎,35.75411622,139.9241949,市川市稲越町518-2,047-373-9000,http://www.city.ichikawa.lg.jp/pub01/1211000002.html,ｽﾜﾀﾞﾉｵｶﾄｸﾍﾞﾂｼｴﾝｶﾞｯｺｳｲﾅｺﾞｼｺｳｼｬ,保健室前
稲越小学校,35.75442275,139.9240847,市川市稲越町518-2,047-373-8401,http://www.city.ichikawa.lg.jp/pub01/1211000002.html,ｲﾅｺﾞｼｼｮｳｶﾞｯｺｳ,2階保健室横
霊園,35.75746867,139.9707605,市川市大野町4-2481,047-337-5696,http://www.city.ichikawa.lg.jp/pub01/1211000002.html,ﾚｲｴﾝ,事務室内
大野地域ふれあい館,35.75793736,139.9554059,市川市大野町3-1625-1,047-338-3754,http://www.city.ichikawa.lg.jp/pub01/1211000002.html,ｵｵﾉﾁｲｷﾌﾚｱｲｶﾝ,1階管理人室入口横
いきいきｾﾝﾀ-北国分,35.75882611,139.9035431,市川市北国分1-12-32,047-377-2167,http://www.city.ichikawa.lg.jp/pub01/1211000002.html,ｲｷｲｷｾﾝﾀ-ｷﾀｺｸﾌﾞﾝ,1階玄関正面
市川歴史博物館,35.75977661,139.9115171,市川市堀之内2-27-1,047-373-6351,http://www.city.ichikawa.lg.jp/pub01/1211000002.html,ｲﾁｶﾜﾚｷｼﾊｸﾌﾞﾂｶﾝ,事務室前
養護老人ﾎ-ﾑいこい荘,35.76003944,139.9535071,市川市大町521,047-337-8703,http://www.city.ichikawa.lg.jp/pub01/1211000002.html,ﾖｳｺﾞﾛｳｼﾞﾝﾎ-ﾑｲｺｲｿｳ,事務室前廊下
市川市斎場,35.76250794,139.9714705,市川市大野町4-2610-1,047-338-2941,http://www.city.ichikawa.lg.jp/pub01/1211000002.html,ｲﾁｶﾜｼｻｲｼﾞｮｳ,事務室内
動植物園,35.76490303,139.9656796,市川市大町284-1,047-338-1960,http://www.city.ichikawa.lg.jp/pub01/1211000002.html,ﾄﾞｳｼｮｸﾌﾞﾂｴﾝ,事務室
少年自然の家,35.76602914,139.9662123,市川市大町280-4,047-337-0533,http://www.city.ichikawa.lg.jp/pub01/1211000002.html,ｼｮｳﾈﾝｼｾﾞﾝﾉｲｴ,1階受付脇
観賞植物園,35.76853,139.970293,市川市大町213-11,047-339-4411,http://www.city.ichikawa.lg.jp/pub01/1211000002.html,ｶﾝｼｮｳｼｮｸﾌﾞﾂｴﾝ,観賞植物園
梨香園,35.77098786,139.9565872,市川市大町77-19,047-339-3855,http://www.city.ichikawa.lg.jp/pub01/1211000002.html,ﾘｺｳｴﾝ,事務室内
大町小学校,35.77195178,139.9570974,市川市大町84-10,047-337-3610,http://www.city.ichikawa.lg.jp/pub01/1211000002.html,ｵｵﾏﾁｼｮｳｶﾞｯｺｳ,保健室前廊下
